{
"type": "FeatureCollection",
"name": "2026-05-07_대표필지토양시료채취_서초구지역",
"crs": { "type": "name", "properties": { "name": "urn:ogc:def:crs:OGC:1.3:CRS84" } },
"features": [
{ "type": "Feature", "properties": { "SGG_OID": 125030, "JIBUN": "503-1전", "BCHK": "1", "PNU": "1165010400105030001", "COL_ADM_SE": "11650" }, "geometry": { "type": "MultiPolygon", "coordinates": [ [ [ [ 127.059758706749932, 37.437562994095629 ], [ 127.059914000913807, 37.437570170592977 ], [ 127.060153006861754, 37.437526182181969 ], [ 127.060210291523632, 37.437492618224312 ], [ 127.06028413927811, 37.437442233191057 ], [ 127.060591640308743, 37.437353186435615 ], [ 127.060540236729253, 37.437321298401059 ], [ 127.060467158183641, 37.437343580763475 ], [ 127.060397385740657, 37.437360004880048 ], [ 127.060298443321585, 37.437368640733219 ], [ 127.060232075064022, 37.437360123150221 ], [ 127.060187110417601, 37.437340287254329 ], [ 127.06015344648813, 37.437351034967122 ], [ 127.060085719699899, 37.437324641971465 ], [ 127.060070243481192, 37.437300772919166 ], [ 127.060040381270383, 37.437332593300347 ], [ 127.059987978227113, 37.437337385567545 ], [ 127.059912787943759, 37.437332431151496 ], [ 127.059727804330805, 37.437317079111402 ], [ 127.059723761572457, 37.43740776758554 ], [ 127.05972764001325, 37.437440472275782 ], [ 127.059711007639294, 37.437470195717978 ], [ 127.059758706749932, 37.437562994095629 ] ] ] ] } },
{ "type": "Feature", "properties": { "SGG_OID": 135907, "JIBUN": "525-7 전", "BCHK": "1", "PNU": "1165010400105250007", "COL_ADM_SE": "11650" }, "geometry": { "type": "MultiPolygon", "coordinates": [ [ [ [ 127.062884326406547, 37.436643213162917 ], [ 127.062913734653762, 37.436652262035928 ], [ 127.062943393072487, 37.436649417461048 ], [ 127.063032954955759, 37.436598337770796 ], [ 127.063076487504233, 37.436552381700153 ], [ 127.063105273907794, 37.436464455315836 ], [ 127.063105784148959, 37.436397672306789 ], [ 127.062952686136668, 37.43639290455144 ], [ 127.062756877139876, 37.436416261185713 ], [ 127.062653920358173, 37.436433100267529 ], [ 127.062753972588411, 37.436568037555503 ], [ 127.062801414239104, 37.436659906813347 ], [ 127.062884326406547, 37.436643213162917 ] ] ] ] } },
{ "type": "Feature", "properties": { "SGG_OID": 125098, "JIBUN": "532전", "BCHK": "1", "PNU": "1165010400105320000", "COL_ADM_SE": "11650" }, "geometry": { "type": "MultiPolygon", "coordinates": [ [ [ [ 127.063232817536814, 37.435800399623254 ], [ 127.063278088377558, 37.435752982930936 ], [ 127.063256556105671, 37.435689067625077 ], [ 127.063081965991913, 37.435363984700643 ], [ 127.062985110600252, 37.435226811498559 ], [ 127.062849091327919, 37.435350815882067 ], [ 127.062740320486839, 37.43546907558234 ], [ 127.062740765991848, 37.435613732273751 ], [ 127.062971301300252, 37.435556308502157 ], [ 127.06301531305138, 37.435599570062863 ], [ 127.063082219083839, 37.435631593118785 ], [ 127.063182225695229, 37.435752609505109 ], [ 127.063232817536814, 37.435800399623254 ] ] ] ] } },
{ "type": "Feature", "properties": { "SGG_OID": 125118, "JIBUN": "538전", "BCHK": "1", "PNU": "1165010400105380000", "COL_ADM_SE": "11650" }, "geometry": { "type": "MultiPolygon", "coordinates": [ [ [ [ 127.06236367297042, 37.43464364883075 ], [ 127.062447925697015, 37.434554919146301 ], [ 127.062481243673943, 37.434551442094147 ], [ 127.062598506210449, 37.434539208931341 ], [ 127.062653109555043, 37.434533324146827 ], [ 127.062747201832408, 37.434498343337886 ], [ 127.062717033441032, 37.434401149130771 ], [ 127.062646987373981, 37.434368920252894 ], [ 127.062502986078599, 37.434346370305143 ], [ 127.062414671219159, 37.434260225340019 ], [ 127.062284422330237, 37.434225288179604 ], [ 127.06226862763107, 37.434310720937233 ], [ 127.062260651506492, 37.434353847314235 ], [ 127.062245183026633, 37.434437549962496 ], [ 127.062223208712084, 37.434552241638166 ], [ 127.06236367297042, 37.43464364883075 ] ] ] ] } },
{ "type": "Feature", "properties": { "SGG_OID": 125115, "JIBUN": "539전", "BCHK": "1", "PNU": "1165010400105390000", "COL_ADM_SE": "11650" }, "geometry": { "type": "MultiPolygon", "coordinates": [ [ [ [ 127.062613525786659, 37.434918453739449 ], [ 127.062677735655313, 37.434845646065874 ], [ 127.062848127083541, 37.434750690579939 ], [ 127.062888272093176, 37.434708565608886 ], [ 127.062991381163883, 37.434673652005543 ], [ 127.063064676273115, 37.434616354763399 ], [ 127.062893628565661, 37.434543407935529 ], [ 127.062779981499332, 37.434527600126579 ], [ 127.062747201832408, 37.434498343337886 ], [ 127.062653109555043, 37.434533324146827 ], [ 127.062598506210449, 37.434539208931341 ], [ 127.062481243673943, 37.434551442094147 ], [ 127.062447925697015, 37.434554919146301 ], [ 127.06236367297042, 37.43464364883075 ], [ 127.06242604874906, 37.434789426940384 ], [ 127.062481955498214, 37.434830042620447 ], [ 127.062613525786659, 37.434918453739449 ] ] ] ] } },
{ "type": "Feature", "properties": { "SGG_OID": 125081, "JIBUN": "563-1전", "BCHK": "1", "PNU": "1165010400105630001", "COL_ADM_SE": "11650" }, "geometry": { "type": "MultiPolygon", "coordinates": [ [ [ [ 127.060727097016141, 37.436290613564736 ], [ 127.060758060962684, 37.436309933691646 ], [ 127.060881930294613, 37.43623249294189 ], [ 127.060789210608419, 37.436163522223602 ], [ 127.060771629056958, 37.43612064303548 ], [ 127.060721406688458, 37.43610985609898 ], [ 127.060636825810803, 37.436130964009905 ], [ 127.060603466651315, 37.4360974271343 ], [ 127.06052842068037, 37.436145227081994 ], [ 127.060540958272782, 37.435995509254099 ], [ 127.060434136150917, 37.436010969790843 ], [ 127.060434119077897, 37.436046847957059 ], [ 127.06039649810171, 37.436068283674004 ], [ 127.060408983869721, 37.436111679032123 ], [ 127.060443115883544, 37.436122239861433 ], [ 127.060439889139744, 37.436142829513365 ], [ 127.060425184822705, 37.436224242956378 ], [ 127.060454064630775, 37.436251637237447 ], [ 127.060458764898371, 37.436265753696162 ], [ 127.060487097162309, 37.436272109694855 ], [ 127.060513412088213, 37.436241939811282 ], [ 127.060611810620443, 37.436247657113505 ], [ 127.060607920597064, 37.436272490850946 ], [ 127.060727097016141, 37.436290613564736 ] ] ] ] } },
{ "type": "Feature", "properties": { "SGG_OID": 144703, "JIBUN": "산41-3임", "BCHK": "1", "PNU": "1165010400200410003", "COL_ADM_SE": "11650" }, "geometry": { "type": "MultiPolygon", "coordinates": [ [ [ [ 127.056226205606578, 37.445177196608931 ], [ 127.056253342117287, 37.445135791779201 ], [ 127.056387001896852, 37.444852047714207 ], [ 127.056433545428291, 37.444800884932619 ], [ 127.056434245502771, 37.444800118751267 ], [ 127.056251891171854, 37.444803888456917 ], [ 127.056070710949513, 37.444868358190718 ], [ 127.055557954072768, 37.444877162321198 ], [ 127.055063489389354, 37.444913040216456 ], [ 127.054821536735744, 37.444807064999864 ], [ 127.054611350207523, 37.444940436580787 ], [ 127.054728354797348, 37.445209460727824 ], [ 127.054748711746541, 37.445231814557417 ], [ 127.054784880589892, 37.44524148408869 ], [ 127.054952169776001, 37.445377136282957 ], [ 127.055056242098274, 37.445463027240123 ], [ 127.055148802728482, 37.445537922032429 ], [ 127.055271761740443, 37.445596143310048 ], [ 127.055342903237602, 37.445617140437783 ], [ 127.055425130126125, 37.445637276510439 ], [ 127.055548810104625, 37.445628948791423 ], [ 127.055624983999095, 37.445623399781653 ], [ 127.055774354665758, 37.44558971473532 ], [ 127.055787676302472, 37.445587140749247 ], [ 127.055884144006356, 37.445547398045704 ], [ 127.05593570088962, 37.445551861334458 ], [ 127.05605878075032, 37.445339797643491 ], [ 127.056226205606578, 37.445177196608931 ] ] ] ] } },
{ "type": "Feature", "properties": { "SGG_OID": 258898, "JIBUN": "227 답", "BCHK": "1", "PNU": "1165010400102270000", "COL_ADM_SE": "11650" }, "geometry": { "type": "MultiPolygon", "coordinates": [ [ [ [ 127.047712101630523, 37.452186121032533 ], [ 127.047655397103696, 37.452087510050113 ], [ 127.047663952215942, 37.452013534112091 ], [ 127.047696268591054, 37.451984869496457 ], [ 127.047388494655067, 37.452046212714279 ], [ 127.04745048094577, 37.452077877022887 ], [ 127.047532738766748, 37.452140410885406 ], [ 127.047602126284147, 37.452188047069285 ], [ 127.047707402216261, 37.452207882165183 ], [ 127.047712101630523, 37.452186121032533 ] ] ] ] } },
{ "type": "Feature", "properties": { "SGG_OID": 156843, "JIBUN": "342-2 답", "BCHK": "1", "PNU": "1165010400103420002", "COL_ADM_SE": "11650" }, "geometry": { "type": "MultiPolygon", "coordinates": [ [ [ [ 127.05424322828604, 37.447460672737144 ], [ 127.054335209375807, 37.447351853122605 ], [ 127.054466875109043, 37.447205380609375 ], [ 127.054544513634895, 37.44711103742118 ], [ 127.054518570873043, 37.447084829759589 ], [ 127.054412609804842, 37.447079390096846 ], [ 127.054347854498786, 37.447061678235286 ], [ 127.054306022109174, 37.447002365627704 ], [ 127.054304225854196, 37.44695494644089 ], [ 127.054318585735771, 37.446901672502868 ], [ 127.054341296843077, 37.446800046803141 ], [ 127.05426443271304, 37.446773978962547 ], [ 127.054154280414394, 37.446769865418254 ], [ 127.054002337144325, 37.446829840933681 ], [ 127.053992749558745, 37.446936722621899 ], [ 127.054092835909344, 37.447122618919472 ], [ 127.054029031109778, 37.447155119569516 ], [ 127.054058725227662, 37.44722923220165 ], [ 127.054126977279253, 37.4473988794363 ], [ 127.054167750212855, 37.447397617891141 ], [ 127.054210243970132, 37.447416862478519 ], [ 127.05424322828604, 37.447460672737144 ] ] ] ] } },
{ "type": "Feature", "properties": { "SGG_OID": 124518, "JIBUN": "346전", "BCHK": "1", "PNU": "1165010400103460000", "COL_ADM_SE": "11650" }, "geometry": { "type": "MultiPolygon", "coordinates": [ [ [ [ 127.054481296174032, 37.445956524548045 ], [ 127.054554820201673, 37.445942607060694 ], [ 127.054620186998307, 37.445899428485951 ], [ 127.054699263459455, 37.445827105140559 ], [ 127.054782905073893, 37.445802352854038 ], [ 127.054737466958187, 37.445725445344273 ], [ 127.054591672156491, 37.445655043143489 ], [ 127.054449899649043, 37.445599235274621 ], [ 127.054380400353466, 37.445566920226433 ], [ 127.05428438049772, 37.445521426236944 ], [ 127.05418232103581, 37.445516921671071 ], [ 127.054059746385605, 37.445554467127472 ], [ 127.053915662268935, 37.445650866763422 ], [ 127.053870076954183, 37.445701883961277 ], [ 127.053848761699783, 37.445796147744325 ], [ 127.05396398517297, 37.445863014461814 ], [ 127.054046491255065, 37.44589470227843 ], [ 127.054125679535488, 37.445884458648891 ], [ 127.054179539458559, 37.445901571816414 ], [ 127.054340144775892, 37.445916871327512 ], [ 127.054408491110223, 37.44591623708795 ], [ 127.054481296174032, 37.445956524548045 ] ] ] ] } },
{ "type": "Feature", "properties": { "SGG_OID": 124492, "JIBUN": "347전", "BCHK": "1", "PNU": "1165010400103470000", "COL_ADM_SE": "11650" }, "geometry": { "type": "MultiPolygon", "coordinates": [ [ [ [ 127.054840310468592, 37.446340642587835 ], [ 127.054909962537423, 37.446379922075486 ], [ 127.055051959521833, 37.446272421779447 ], [ 127.055089386388474, 37.446238887363563 ], [ 127.055232152059176, 37.446100833354492 ], [ 127.0552494070634, 37.446083291916104 ], [ 127.055371878145067, 37.445995478097885 ], [ 127.055308126086942, 37.445957475624766 ], [ 127.055111706888454, 37.445860733632621 ], [ 127.054679616989205, 37.446250082688778 ], [ 127.054753922683517, 37.446302307645297 ], [ 127.054840310468592, 37.446340642587835 ] ] ] ] } },
{ "type": "Feature", "properties": { "SGG_OID": 124960, "JIBUN": "482전", "BCHK": "1", "PNU": "1165010400104820000", "COL_ADM_SE": "11650" }, "geometry": { "type": "MultiPolygon", "coordinates": [ [ [ [ 127.059505651440148, 37.438861543334937 ], [ 127.059596884706394, 37.438875887640336 ], [ 127.059561736646643, 37.438765576469017 ], [ 127.05948403619611, 37.438672405314222 ], [ 127.059498764842601, 37.438649881898343 ], [ 127.059564020420524, 37.438664779574502 ], [ 127.059559039041503, 37.438623164457312 ], [ 127.059543322632749, 37.438551767282384 ], [ 127.059546229793796, 37.438468053192274 ], [ 127.059426471360453, 37.438431936448829 ], [ 127.059317366743485, 37.438378767300911 ], [ 127.059234873916282, 37.438415334479835 ], [ 127.059346164497214, 37.438592670560539 ], [ 127.059423927987098, 37.438723990458307 ], [ 127.059505651440148, 37.438861543334937 ] ] ] ] } },
{ "type": "Feature", "properties": { "SGG_OID": 143652, "JIBUN": "132-1 전", "BCHK": "1", "PNU": "1165011100101320001", "COL_ADM_SE": "11650" }, "geometry": { "type": "MultiPolygon", "coordinates": [ [ [ [ 127.06194762802869, 37.439881279258628 ], [ 127.061949877169411, 37.439881872773931 ], [ 127.062115287119383, 37.439801805618778 ], [ 127.062177337606386, 37.439749848705965 ], [ 127.062222761345325, 37.439692106819564 ], [ 127.062267091487428, 37.439693435556165 ], [ 127.062320552586769, 37.439653763719399 ], [ 127.062420611044203, 37.439540842943735 ], [ 127.062661104262091, 37.439235682541323 ], [ 127.062712760256815, 37.439200165104808 ], [ 127.062733204920974, 37.439148950234426 ], [ 127.062820936296887, 37.439080247956973 ], [ 127.062801986311143, 37.438913481199904 ], [ 127.062776304508873, 37.438930226231534 ], [ 127.062733284202949, 37.438996580729771 ], [ 127.062653872637867, 37.43905534953204 ], [ 127.062616517280759, 37.439071001336025 ], [ 127.062577625238802, 37.439058947925886 ], [ 127.062370432252862, 37.439182294649392 ], [ 127.062326442248747, 37.439223907816967 ], [ 127.062255005729924, 37.439252236196701 ], [ 127.06212984417904, 37.439343076997673 ], [ 127.062081850539911, 37.43942266060138 ], [ 127.061935862031106, 37.43952630617683 ], [ 127.061872639077535, 37.43958161531306 ], [ 127.061863306389697, 37.439667197810628 ], [ 127.061854033926451, 37.439771521239841 ], [ 127.061892562318945, 37.439780700857064 ], [ 127.061942661306205, 37.439831528142257 ], [ 127.06194762802869, 37.439881279258628 ] ] ] ] } },
{ "type": "Feature", "properties": { "SGG_OID": 112146, "JIBUN": "137-3 전", "BCHK": "1", "PNU": "1165011100101370003", "COL_ADM_SE": "11650" }, "geometry": { "type": "MultiPolygon", "coordinates": [ [ [ [ 127.062703955016417, 37.440085013497843 ], [ 127.062286120195537, 37.440084544285668 ], [ 127.062305015988457, 37.440115511219375 ], [ 127.062296634557839, 37.440133265383977 ], [ 127.062343216654739, 37.440180210960733 ], [ 127.062378028534383, 37.440204421142084 ], [ 127.062481087352808, 37.440223343257763 ], [ 127.062522580634379, 37.440432346652052 ], [ 127.062584740887516, 37.440459552019327 ], [ 127.062687378263618, 37.44047387002211 ], [ 127.062759625466896, 37.440468480624979 ], [ 127.062773068981045, 37.440450480533251 ], [ 127.062783588181404, 37.440393801690938 ], [ 127.062780734187044, 37.440330480341572 ], [ 127.062759003982876, 37.440302100846189 ], [ 127.06271881915491, 37.440285209743081 ], [ 127.062696032388899, 37.440263696462516 ], [ 127.062708043190085, 37.440193123312326 ], [ 127.062703955016417, 37.440085013497843 ] ] ] ] } },
{ "type": "Feature", "properties": { "SGG_OID": 137428, "JIBUN": "169-1답", "BCHK": "1", "PNU": "1165011100101690001", "COL_ADM_SE": "11650" }, "geometry": { "type": "MultiPolygon", "coordinates": [ [ [ [ 127.060402478612644, 37.442951314660746 ], [ 127.060421137052927, 37.442967874890158 ], [ 127.060555716485268, 37.442887167581624 ], [ 127.06068080275719, 37.442805626934103 ], [ 127.061002056312134, 37.442546876554786 ], [ 127.061003072646528, 37.442546011076111 ], [ 127.061096575148198, 37.442466179769305 ], [ 127.061104470380272, 37.442461625701512 ], [ 127.061227401191474, 37.442356902633598 ], [ 127.061102920001716, 37.442373282698 ], [ 127.061059582438133, 37.442385864581809 ], [ 127.060891886608829, 37.442484753421425 ], [ 127.060889975457783, 37.442482961376541 ], [ 127.060871026969551, 37.442514055651394 ], [ 127.060853275374683, 37.442515371024939 ], [ 127.060794737272971, 37.442568866180672 ], [ 127.06070672372833, 37.442645513942566 ], [ 127.060687492693802, 37.442662354390649 ], [ 127.060658565958775, 37.442679082556268 ], [ 127.060602861783863, 37.442701076976995 ], [ 127.060547764681942, 37.442719115645474 ], [ 127.060476143462367, 37.442761967266932 ], [ 127.060382085832686, 37.442783602285253 ], [ 127.06027296404632, 37.442775232160038 ], [ 127.060250920133257, 37.442793371385726 ], [ 127.060359182773354, 37.44288787826968 ], [ 127.060367799226896, 37.442895091049344 ], [ 127.060402478612644, 37.442951314660746 ] ] ] ] } }
]
}
